{"type": "FeatureCollection", "features": [ {"type": "Feature", "properties": {"norad_id": 41785, "name": "ALSAT 1B", "group": "resource", "lat": -59.586786476245074, "lon": 21.09120702239621, "alt_km": 667.1504065512572, "timestamp": "2025-12-22T05:49:03.139760+00:00", "meta": {"OBJECT_NAME": "ALSAT 1B", "OBJECT_ID": "2016-059C", "EPOCH": "2025-12-21T20:18:14.946912", "MEAN_MOTION": 14.72082624, "ECCENTRICITY": 0.0010821, "INCLINATION": 97.7805, "RA_OF_ASC_NODE": 7.2427, "ARG_OF_PERICENTER": 78.0088, "MEAN_ANOMALY": 282.2332, "EPHEMERIS_TYPE": 0, "CLASSIFICATION_TYPE": "U", "NORAD_CAT_ID": 41785, "ELEMENT_SET_NO": 999, "REV_AT_EPOCH": 49448, "BSTAR": -5.5839e-06, "MEAN_MOTION_DOT": -8.2e-07, "MEAN_MOTION_DDOT": 0}, "tle": {"line1": "1 41785U 16059C   25355.84600633 -.00000082  00000+0 -55839-5 0  9992", "line2": "2 41785  97.7805   7.2427 0010821  78.0088 282.2332 14.72082624494485"}}, "geometry": {"type": "Point", "coordinates": [21.09120702239621, -59.586786476245074]}}, {"type": "Feature", "properties": {"norad_id": 41787, "name": "PATHFINDER 1", "group": "resource", "lat": -35.76980090681221, "lon": 172.8977409072606, "alt_km": 696.0741694277458, "timestamp": "2025-12-22T05:49:03.139770+00:00", "meta": {"OBJECT_NAME": "PATHFINDER 1", "OBJECT_ID": "2016-059E", "EPOCH": "2025-12-21T12:28:17.461920", "MEAN_MOTION": 14.67335413, "ECCENTRICITY": 0.00297956, "INCLINATION": 97.8136, "RA_OF_ASC_NODE": 357.8858, "ARG_OF_PERICENTER": 54.4562, "MEAN_ANOMALY": 305.9415, "EPHEMERIS_TYPE": 0, "CLASSIFICATION_TYPE": "U", "NORAD_CAT_ID": 41787, "ELEMENT_SET_NO": 999, "REV_AT_EPOCH": 49365, "BSTAR": 0.00011888517, "MEAN_MOTION_DOT": 6.29e-06, "MEAN_MOTION_DDOT": 0}, "tle": {"line1": "1 41787U 16059E   25355.51964655  .00000629  00000+0  11889-3 0  9995", "line2": "2 41787  97.8136 357.8858 0029795  54.4562 305.9415 14.67335413493656"}}, "geometry": {"type": "Point", "coordinates": [172.8977409072606, -35.76980090681221]}}, {"type": "Feature", "properties": {"norad_id": 41790, "name": "SCATSAT 1", "group": "resource", "lat": -64.9831421100475, "lon": -144.8415160032408, "alt_km": 673.4041626662938, "timestamp": "2025-12-22T05:49:03.139780+00:00", "meta": {"OBJECT_NAME": "SCATSAT 1", "OBJECT_ID": "2016-059H", "EPOCH": "2025-12-21T17:20:44.941632", "MEAN_MOTION": 14.7896339, "ECCENTRICITY": 0.0056471, "INCLINATION": 98.145, "RA_OF_ASC_NODE": 52.5048, "ARG_OF_PERICENTER": 99.6908, "MEAN_ANOMALY": 261.0688, "EPHEMERIS_TYPE": 0, "CLASSIFICATION_TYPE": "U", "NORAD_CAT_ID": 41790, "ELEMENT_SET_NO": 999, "REV_AT_EPOCH": 7535, "BSTAR": 0.00015689, "MEAN_MOTION_DOT": 1.132e-05, "MEAN_MOTION_DDOT": 0}, "tle": {"line1": "1 41790U 16059H   25355.72274238  .00001132  00000+0  15689-3 0  9995", "line2": "2 41790  98.1450  52.5048 0056471  99.6908 261.0688 14.78963390 75359"}}, "geometry": {"type": "Point", "coordinates": [-144.8415160032408, -64.9831421100475]}}, {"type": "Feature", "properties": {"norad_id": 41875, "name": "GOKTURK 1A", "group": "resource", "lat": 41.23179126685038, "lon": 75.69003908516864, "alt_km": 680.3875621183961, "timestamp": "2025-12-22T05:49:03.139791+00:00", "meta": {"OBJECT_NAME": "GOKTURK 1A", "OBJECT_ID": "2016-073A", "EPOCH": "2025-12-21T19:20:16.951200", "MEAN_MOTION": 14.62788306, "ECCENTRICITY": 0.0001294, "INCLINATION": 98.1434, "RA_OF_ASC_NODE": 248.0501, "ARG_OF_PERICENTER": 83.0313, "MEAN_ANOMALY": 277.1036, "EPHEMERIS_TYPE": 0, "CLASSIFICATION_TYPE": "U", "NORAD_CAT_ID": 41875, "ELEMENT_SET_NO": 999, "REV_AT_EPOCH": 48289, "BSTAR": 4.3328e-05, "MEAN_MOTION_DOT": 1.74e-06, "MEAN_MOTION_DDOT": 0}, "tle": {"line1": "1 41875U 16073A   25355.80575175  .00000174  00000+0  43328-4 0  9995", "line2": "2 41875  98.1434 248.0501 0001294  83.0313 277.1036 14.62788306482892"}}, "geometry": {"type": "Point", "coordinates": [75.69003908516864, 41.23179126685038]}}, {"type": "Feature", "properties": {"norad_id": 41877, "name": "RESOURCESAT-2A", "group": "resource", "lat": -40.11168712006327, "lon": -121.43365828806785, "alt_km": 825.3808985162859, "timestamp": "2025-12-22T05:49:03.139801+00:00", "meta": {"OBJECT_NAME": "RESOURCESAT-2A", "OBJECT_ID": "2016-074A", "EPOCH": "2025-12-21T20:20:13.443648", "MEAN_MOTION": 14.21602022, "ECCENTRICITY": 0.0001446, "INCLINATION": 98.775, "RA_OF_ASC_NODE": 65.6503, "ARG_OF_PERICENTER": 212.5244, "MEAN_ANOMALY": 147.5844, "EPHEMERIS_TYPE": 0, "CLASSIFICATION_TYPE": "U", "NORAD_CAT_ID": 41877, "ELEMENT_SET_NO": 999, "REV_AT_EPOCH": 46910, "BSTAR": -4.4952e-05, "MEAN_MOTION_DOT": -1.43e-06, "MEAN_MOTION_DDOT": 0}, "tle": {"line1": "1 41877U 16074A   25355.84737782 -.00000143  00000+0 -44952-4 0  9998", "line2": "2 41877  98.7750  65.6503 0001446 212.5244 147.5844 14.21602022469108"}}, "geometry": {"type": "Point", "coordinates": [-121.43365828806785, -40.11168712006327]}}, {"type": "Feature", "properties": {"norad_id": 41948, "name": "CARTOSAT-2D", "group": "resource", "lat": -36.199813330394754, "lon": 59.082091875387434, "alt_km": 517.8457039080149, "timestamp": "2025-12-22T05:49:03.139811+00:00", "meta": {"OBJECT_NAME": "CARTOSAT-2D", "OBJECT_ID": "2017-008A", "EPOCH": "2025-12-21T20:29:39.838848", "MEAN_MOTION": 15.19335784, "ECCENTRICITY": 0.0005318, "INCLINATION": 97.4376, "RA_OF_ASC_NODE": 53.2131, "ARG_OF_PERICENTER": 135.0772, "MEAN_ANOMALY": 225.0894, "EPHEMERIS_TYPE": 0, "CLASSIFICATION_TYPE": "U", "NORAD_CAT_ID": 41948, "ELEMENT_SET_NO": 999, "REV_AT_EPOCH": 49065, "BSTAR": 0.00010226, "MEAN_MOTION_DOT": 2.093e-05, "MEAN_MOTION_DDOT": 0}, "tle": {"line1": "1 41948U 17008A   25355.85393332  .00002093  00000+0  10226-3 0  9995", "line2": "2 41948  97.4376  53.2131 0005318 135.0772 225.0894 15.19335784490651"}}, "geometry": {"type": "Point", "coordinates": [59.082091875387434, -36.199813330394754]}}, {"type": "Feature", "properties": {"norad_id": 42063, "name": "SENTINEL-2B", "group": "resource", "lat": 35.63035241546544, "lon": -105.2393140539653, "alt_km": 786.0411794375359, "timestamp": "2025-12-22T05:49:03.139821+00:00", "meta": {"OBJECT_NAME": "SENTINEL-2B", "OBJECT_ID": "2017-013A", "EPOCH": "2025-12-21T20:45:21.989376", "MEAN_MOTION": 14.30813544, "ECCENTRICITY": 0.0001185, "INCLINATION": 98.5712, "RA_OF_ASC_NODE": 68.1829, "ARG_OF_PERICENTER": 91.4976, "MEAN_ANOMALY": 268.6343, "EPHEMERIS_TYPE": 0, "CLASSIFICATION_TYPE": "U", "NORAD_CAT_ID": 42063, "ELEMENT_SET_NO": 999, "REV_AT_EPOCH": 45928, "BSTAR": 9.5418e-06, "MEAN_MOTION_DOT": -1.9e-07, "MEAN_MOTION_DDOT": 0}, "tle": {"line1": "1 42063U 17013A   25355.86483784 -.00000019  00000+0  95418-5 0  9997", "line2": "2 42063  98.5712  68.1829 0001185  91.4976 268.6343 14.30813544459287"}}, "geometry": {"type": "Point", "coordinates": [-105.2393140539653, 35.63035241546544]}}, {"type": "Feature", "properties": {"norad_id": 42767, "name": "CARTOSAT-2E", "group": "resource", "lat": -51.81437115400379, "lon": -135.87771597010058, "alt_km": 513.6783090192048, "timestamp": "2025-12-22T05:49:03.139832+00:00", "meta": {"OBJECT_NAME": "CARTOSAT-2E", "OBJECT_ID": "2017-036C", "EPOCH": "2025-12-21T20:53:39.682752", "MEAN_MOTION": 15.19277436, "ECCENTRICITY": 0.0002562, "INCLINATION": 97.4544, "RA_OF_ASC_NODE": 53.3382, "ARG_OF_PERICENTER": 192.9238, "MEAN_ANOMALY": 167.1931, "EPHEMERIS_TYPE": 0, "CLASSIFICATION_TYPE": "U", "NORAD_CAT_ID": 42767, "ELEMENT_SET_NO": 999, "REV_AT_EPOCH": 47122, "BSTAR": 0.00011583, "MEAN_MOTION_DOT": 2.375e-05, "MEAN_MOTION_DDOT": 0}, "tle": {"line1": "1 42767U 17036C   25355.87059818  .00002375  00000+0  11583-3 0  9996", "line2": "2 42767  97.4544  53.3382 0002562 192.9238 167.1931 15.19277436471223"}}, "geometry": {"type": "Point", "coordinates": [-135.87771597010058, -51.81437115400379]}}, {"type": "Feature", "properties": {"norad_id": 42920, "name": "FORMOSAT-5", "group": "resource", "lat": 68.15123413630903, "lon": -88.43147490157837, "alt_km": 723.0232134502385, "timestamp": "2025-12-22T05:49:03.139842+00:00", "meta": {"OBJECT_NAME": "FORMOSAT-5", "OBJECT_ID": "2017-049A", "EPOCH": "2025-12-21T19:22:43.533120", "MEAN_MOTION": 14.50765353, "ECCENTRICITY": 0.0009823, "INCLINATION": 98.2442, "RA_OF_ASC_NODE": 69.9443, "ARG_OF_PERICENTER": 270.6289, "MEAN_ANOMALY": 89.378, "EPHEMERIS_TYPE": 0, "CLASSIFICATION_TYPE": "U", "NORAD_CAT_ID": 42920, "ELEMENT_SET_NO": 999, "REV_AT_EPOCH": 44095, "BSTAR": 5.1873e-05, "MEAN_MOTION_DOT": 1.6e-06, "MEAN_MOTION_DDOT": 0}, "tle": {"line1": "1 42920U 17049A   25355.80744830  .00000160  00000+0  51873-4 0  9996", "line2": "2 42920  98.2442  69.9443 0009823 270.6289  89.3780 14.50765353440955"}}, "geometry": {"type": "Point", "coordinates": [-88.43147490157837, 68.15123413630903]}}, {"type": "Feature", "properties": {"norad_id": 42969, "name": "SENTINEL-5P", "group": "resource", "lat": 23.981494107667306, "lon": 118.6848737594633, "alt_km": 826.0433822270752, "timestamp": "2025-12-22T05:49:03.139853+00:00", "meta": {"OBJECT_NAME": "SENTINEL-5P", "OBJECT_ID": "2017-064A", "EPOCH": "2025-12-21T18:56:13.127712", "MEAN_MOTION": 14.19519562, "ECCENTRICITY": 0.0001021, "INCLINATION": 98.7799, "RA_OF_ASC_NODE": 294.2934, "ARG_OF_PERICENTER": 91.0848, "MEAN_ANOMALY": 269.0445, "EPHEMERIS_TYPE": 0, "CLASSIFICATION_TYPE": "U", "NORAD_CAT_ID": 42969, "ELEMENT_SET_NO": 999, "REV_AT_EPOCH": 42439, "BSTAR": 4.8556e-05, "MEAN_MOTION_DOT": 5.8e-07, "MEAN_MOTION_DDOT": 0}, "tle": {"line1": "1 42969U 17064A   25355.78904083  .00000058  00000+0  48556-4 0  9991", "line2": "2 42969  98.7799 294.2934 0001021  91.0848 269.0445 14.19519562424393"}}, "geometry": {"type": "Point", "coordinates": [118.6848737594633, 23.981494107667306]}}]}